[{"OBJECT_NAME":"STARLINK-33654","OBJECT_ID":"2025-070G","EPOCH":"2026-03-09T12:59:29.196096","MEAN_MOTION":15.27597063,"ECCENTRICITY":9.59e-5,"INCLINATION":42.9983,"RA_OF_ASC_NODE":260.6446,"ARG_OF_PERICENTER":260.8354,"MEAN_ANOMALY":99.2389,"EPHEMERIS_TYPE":0,"CLASSIFICATION_TYPE":"U","NORAD_CAT_ID":63466,"ELEMENT_SET_NO":999,"REV_AT_EPOCH":5295,"BSTAR":0.00097146122,"MEAN_MOTION_DOT":0.00026581,"MEAN_MOTION_DDOT":0},{"OBJECT_NAME":"REAL","OBJECT_ID":"2025-154G","EPOCH":"2026-03-09T17:20:09.670560","MEAN_MOTION":15.28408058,"ECCENTRICITY":0.00018528,"INCLINATION":97.4133,"RA_OF_ASC_NODE":137.2581,"ARG_OF_PERICENTER":118.5876,"MEAN_ANOMALY":241.555,"EPHEMERIS_TYPE":0,"CLASSIFICATION_TYPE":"U","NORAD_CAT_ID":64875,"ELEMENT_SET_NO":999,"REV_AT_EPOCH":3483,"BSTAR":0.0008290401,"MEAN_MOTION_DOT":0.00022901,"MEAN_MOTION_DDOT":0}]
